CCSDS_OMM_VERS = 2.0
CREATION_DATE  = 
ORIGINATOR     = 

OBJECT_NAME    = SL-14 R/B
OBJECT_ID      = 1986-046B
CENTER_NAME    = EARTH
REF_FRAME      = TEME
TIME_SYSTEM    = UTC
MEAN_ELEMENT_THEORY = SGP/SGP4

EPOCH          = 2026-03-06T02:28:01.484544
MEAN_MOTION    = 14.85585901
ECCENTRICITY   = .00217674
INCLINATION    = 82.4782
RA_OF_ASC_NODE = 83.5720
ARG_OF_PERICENTER = 237.8940
MEAN_ANOMALY   = 122.0164

EPHEMERIS_TYPE = 0
CLASSIFICATION_TYPE = U
NORAD_CAT_ID   = 16792
ELEMENT_SET_NO = 999
REV_AT_EPOCH   = 12587
BSTAR          = .59679211E-4
MEAN_MOTION_DOT = .542E-5
MEAN_MOTION_DDOT = 0

CCSDS_OMM_VERS = 2.0
CREATION_DATE  = 
ORIGINATOR     = 

OBJECT_NAME    = SL-14 R/B
OBJECT_ID      = 1986-055B
CENTER_NAME    = EARTH
REF_FRAME      = TEME
TIME_SYSTEM    = UTC
MEAN_ELEMENT_THEORY = SGP/SGP4

EPOCH          = 2026-03-06T10:13:04.038816
MEAN_MOTION    = 14.85639349
ECCENTRICITY   = .00184551
INCLINATION    = 82.5207
RA_OF_ASC_NODE = 129.7420
ARG_OF_PERICENTER = 347.6741
MEAN_ANOMALY   = 22.7388

EPHEMERIS_TYPE = 0
CLASSIFICATION_TYPE = U
NORAD_CAT_ID   = 16882
ELEMENT_SET_NO = 999
REV_AT_EPOCH   = 11888
BSTAR          = .67364165E-4
MEAN_MOTION_DOT = .609E-5
MEAN_MOTION_DDOT = 0

CCSDS_OMM_VERS = 2.0
CREATION_DATE  = 
ORIGINATOR     = 

OBJECT_NAME    = SL-14 R/B
OBJECT_ID      = 1987-024B
CENTER_NAME    = EARTH
REF_FRAME      = TEME
TIME_SYSTEM    = UTC
MEAN_ELEMENT_THEORY = SGP/SGP4

EPOCH          = 2026-03-06T01:41:03.130368
MEAN_MOTION    = 14.86127647
ECCENTRICITY   = .00166686
INCLINATION    = 82.5250
RA_OF_ASC_NODE = 96.1667
ARG_OF_PERICENTER = 273.0237
MEAN_ANOMALY   = 86.9072

EPHEMERIS_TYPE = 0
CLASSIFICATION_TYPE = U
NORAD_CAT_ID   = 17567
ELEMENT_SET_NO = 999
REV_AT_EPOCH   = 8759
BSTAR          = .56139939E-4
MEAN_MOTION_DOT = .517E-5
MEAN_MOTION_DDOT = 0

CCSDS_OMM_VERS = 2.0
CREATION_DATE  = 
ORIGINATOR     = 

OBJECT_NAME    = COSMOS 1833
OBJECT_ID      = 1987-027A
CENTER_NAME    = EARTH
REF_FRAME      = TEME
TIME_SYSTEM    = UTC
MEAN_ELEMENT_THEORY = SGP/SGP4

EPOCH          = 2026-03-06T11:05:49.200000
MEAN_MOTION    = 14.13055581
ECCENTRICITY   = .00244237
INCLINATION    = 70.9230
RA_OF_ASC_NODE = 332.8013
ARG_OF_PERICENTER = 219.0330
MEAN_ANOMALY   = 140.9030

EPHEMERIS_TYPE = 0
CLASSIFICATION_TYPE = U
NORAD_CAT_ID   = 17589
ELEMENT_SET_NO = 999
REV_AT_EPOCH   = 986
BSTAR          = -.48977589E-4
MEAN_MOTION_DOT = -.14E-5
MEAN_MOTION_DDOT = 0

CCSDS_OMM_VERS = 2.0
CREATION_DATE  = 
ORIGINATOR     = 

OBJECT_NAME    = SL-16 R/B
OBJECT_ID      = 1987-027B
CENTER_NAME    = EARTH
REF_FRAME      = TEME
TIME_SYSTEM    = UTC
MEAN_ELEMENT_THEORY = SGP/SGP4

EPOCH          = 2026-03-06T00:31:31.421280
MEAN_MOTION    = 14.17165768
ECCENTRICITY   = .00035861
INCLINATION    = 71.0014
RA_OF_ASC_NODE = 284.2247
ARG_OF_PERICENTER = 150.8635
MEAN_ANOMALY   = 209.2690

EPHEMERIS_TYPE = 0
CLASSIFICATION_TYPE = U
NORAD_CAT_ID   = 17590
ELEMENT_SET_NO = 999
REV_AT_EPOCH   = 1482
BSTAR          = -.44720913E-4
MEAN_MOTION_DOT = -.138E-5
MEAN_MOTION_DDOT = 0

CCSDS_OMM_VERS = 2.0
CREATION_DATE  = 
ORIGINATOR     = 

OBJECT_NAME    = SL-14 R/B
OBJECT_ID      = 1987-038B
CENTER_NAME    = EARTH
REF_FRAME      = TEME
TIME_SYSTEM    = UTC
MEAN_ELEMENT_THEORY = SGP/SGP4

EPOCH          = 2026-03-06T03:08:08.318976
MEAN_MOTION    = 14.85365319
ECCENTRICITY   = .00193797
INCLINATION    = 82.5007
RA_OF_ASC_NODE = 300.1608
ARG_OF_PERICENTER = 171.9810
MEAN_ANOMALY   = 188.1720

EPHEMERIS_TYPE = 0
CLASSIFICATION_TYPE = U
NORAD_CAT_ID   = 17912
ELEMENT_SET_NO = 999
REV_AT_EPOCH   = 7870
BSTAR          = .57062255E-4
MEAN_MOTION_DOT = .517E-5
MEAN_MOTION_DDOT = 0

CCSDS_OMM_VERS = 2.0
CREATION_DATE  = 
ORIGINATOR     = 

OBJECT_NAME    = COSMOS 1844
OBJECT_ID      = 1987-041A
CENTER_NAME    = EARTH
REF_FRAME      = TEME
TIME_SYSTEM    = UTC
MEAN_ELEMENT_THEORY = SGP/SGP4

EPOCH          = 2026-03-06T08:37:44.627520
MEAN_MOTION    = 14.14552969
ECCENTRICITY   = .00298135
INCLINATION    = 70.8996
RA_OF_ASC_NODE = 41.1989
ARG_OF_PERICENTER = 22.7812
MEAN_ANOMALY   = 337.4624

EPHEMERIS_TYPE = 0
CLASSIFICATION_TYPE = U
NORAD_CAT_ID   = 17973
ELEMENT_SET_NO = 999
REV_AT_EPOCH   = 311
BSTAR          = -.3277016E-4
MEAN_MOTION_DOT = -.112E-5
MEAN_MOTION_DDOT = 0

CCSDS_OMM_VERS = 2.0
CREATION_DATE  = 
ORIGINATOR     = 

OBJECT_NAME    = SL-14 R/B
OBJECT_ID      = 1987-055B
CENTER_NAME    = EARTH
REF_FRAME      = TEME
TIME_SYSTEM    = UTC
MEAN_ELEMENT_THEORY = SGP/SGP4

EPOCH          = 2026-03-06T07:26:47.810112
MEAN_MOTION    = 14.85624829
ECCENTRICITY   = .00214344
INCLINATION    = 82.5030
RA_OF_ASC_NODE = 352.2153
ARG_OF_PERICENTER = 28.6582
MEAN_ANOMALY   = 331.5807

EPHEMERIS_TYPE = 0
CLASSIFICATION_TYPE = U
NORAD_CAT_ID   = 18153
ELEMENT_SET_NO = 999
REV_AT_EPOCH   = 6943
BSTAR          = .89413072E-4
MEAN_MOTION_DOT = .801E-5
MEAN_MOTION_DDOT = 0

CCSDS_OMM_VERS = 2.0
CREATION_DATE  = 
ORIGINATOR     = 

OBJECT_NAME    = COSMOS 1867
OBJECT_ID      = 1987-060A
CENTER_NAME    = EARTH
REF_FRAME      = TEME
TIME_SYSTEM    = UTC
MEAN_ELEMENT_THEORY = SGP/SGP4

EPOCH          = 2026-03-06T02:06:35.933760
MEAN_MOTION    = 14.31502415
ECCENTRICITY   = .00144485
INCLINATION    = 65.0117
RA_OF_ASC_NODE = 316.7920
ARG_OF_PERICENTER = 278.4415
MEAN_ANOMALY   = 81.5032

EPHEMERIS_TYPE = 0
CLASSIFICATION_TYPE = U
NORAD_CAT_ID   = 18187
ELEMENT_SET_NO = 999
REV_AT_EPOCH   = 1942
BSTAR          = .34236855E-4
MEAN_MOTION_DOT = -.9E-7
MEAN_MOTION_DDOT = 0

CCSDS_OMM_VERS = 2.0
CREATION_DATE  = 
ORIGINATOR     = 

OBJECT_NAME    = SL-14 R/B
OBJECT_ID      = 1988-001B
CENTER_NAME    = EARTH
REF_FRAME      = TEME
TIME_SYSTEM    = UTC
MEAN_ELEMENT_THEORY = SGP/SGP4

EPOCH          = 2026-03-06T15:24:39.894624
MEAN_MOTION    = 14.85523654
ECCENTRICITY   = .00166852
INCLINATION    = 82.5147
RA_OF_ASC_NODE = 198.2257
ARG_OF_PERICENTER = 246.5540
MEAN_ANOMALY   = 113.3923

EPHEMERIS_TYPE = 0
CLASSIFICATION_TYPE = U
NORAD_CAT_ID   = 18749
ELEMENT_SET_NO = 999
REV_AT_EPOCH   = 4157
BSTAR          = .95623698E-4
MEAN_MOTION_DOT = .851E-5
MEAN_MOTION_DDOT = 0

CCSDS_OMM_VERS = 2.0
CREATION_DATE  = 
ORIGINATOR     = 

OBJECT_NAME    = COSMOS 1933
OBJECT_ID      = 1988-020A
CENTER_NAME    = EARTH
REF_FRAME      = TEME
TIME_SYSTEM    = UTC
MEAN_ELEMENT_THEORY = SGP/SGP4

EPOCH          = 2026-03-05T23:12:08.885664
MEAN_MOTION    = 15.17942396
ECCENTRICITY   = .00035303
INCLINATION    = 82.5097
RA_OF_ASC_NODE = 254.5962
ARG_OF_PERICENTER = 196.2734
MEAN_ANOMALY   = 163.8387

EPHEMERIS_TYPE = 0
CLASSIFICATION_TYPE = U
NORAD_CAT_ID   = 18958
ELEMENT_SET_NO = 999
REV_AT_EPOCH   = 4966
BSTAR          = .24225826E-3
MEAN_MOTION_DOT = .4946E-4
MEAN_MOTION_DDOT = 0

